{
    "links": {
        "self": "http://www.neowsapp.com/rest/v1/neo/3843182?api_key=iIulBulltgU6a56xZRHN4H3l9WmuAYTsLGpBGhQ2"
    },
    "id": "3843182",
    "neo_reference_id": "3843182",
    "name": "(2019 NO4)",
    "designation": "2019 NO4",
    "nasa_jpl_url": "http://ssd.jpl.nasa.gov/sbdb.cgi?sstr=3843182",
    "absolute_magnitude_h": 22.0,
    "estimated_diameter": {
        "kilometers": {
            "estimated_diameter_min": 0.1058168859,
            "estimated_diameter_max": 0.2366137501
        },
        "meters": {
            "estimated_diameter_min": 105.8168859331,
            "estimated_diameter_max": 236.6137501138
        },
        "miles": {
            "estimated_diameter_min": 0.0657515442,
            "estimated_diameter_max": 0.1470249225
        },
        "feet": {
            "estimated_diameter_min": 347.1682720448,
            "estimated_diameter_max": 776.2918559233
        }
    },
    "is_potentially_hazardous_asteroid": true,
    "close_approach_data": [
        {
            "close_approach_date": "2019-07-22",
            "close_approach_date_full": "2019-Jul-22 09:24",
            "epoch_date_close_approach": 1563787440000,
            "relative_velocity": {
                "kilometers_per_second": "19.5747648525",
                "kilometers_per_hour": "70469.1534689557",
                "miles_per_hour": "43786.7914985297"
            },
            "miss_distance": {
                "astronomical": "0.0849189712",
                "lunar": "33.0334797968",
                "kilometers": "12703697.214111344",
                "miles": "7893711.4125867872"
            },
            "orbiting_body": "Earth"
        }
    ],
    "orbital_data": {
        "orbit_id": "7",
        "orbit_determination_date": "2019-07-28 07:23:33",
        "first_observation_date": "2019-07-06",
        "last_observation_date": "2019-07-19",
        "data_arc_in_days": 13,
        "observations_used": 40,
        "orbit_uncertainty": "8",
        "minimum_orbit_intersection": ".0362666",
        "jupiter_tisserand_invariant": "4.224",
        "epoch_osculation": "2458675.5",
        "eccentricity": ".6560548088758684",
        "semi_major_axis": "1.517462697353445",
        "inclination": "12.81531100671784",
        "ascending_node_longitude": "127.981952376231",
        "orbital_period": "682.7716228253715",
        "perihelion_distance": ".521923997464971",
        "perihelion_argument": "269.1972433051145",
        "aphelion_distance": "2.51300139724192",
        "perihelion_time": "2458737.645084484349",
        "mean_anomaly": "327.2332158126501",
        "mean_motion": ".5272626863288299",
        "equinox": "J2000",
        "orbit_class": {
            "orbit_class_type": "APO",
            "orbit_class_description": "Near-Earth asteroid orbits which cross the Earth’s orbit similar to that of 1862 Apollo",
            "orbit_class_range": "a (semi-major axis) > 1.0 AU; q (perihelion) < 1.017 AU"
        }
    },
    "is_sentry_object": false
}